{
  "type": "FeatureCollection",
  "features": [
    {
      "type": "Feature",
      "properties": {
        "norad_id": 44873,
        "name": "CSG-1",
        "group": "resource",
        "lat": -30.44210947250813,
        "lon": -13.525195260923958,
        "alt_km": 629.1300638022376,
        "timestamp": "2025-12-15T20:48:53.542944+00:00",
        "meta_object_name": "CSG-1",
        "meta_object_id": "2019-092A",
        "meta_epoch": "2025-12-14T22:48:15.702336",
        "meta_mean_motion": 14.82167328,
        "meta_eccentricity": 0.00014281,
        "meta_inclination": 97.881,
        "meta_ra_of_asc_node": 170.2411,
        "meta_arg_of_pericenter": 84.3978,
        "meta_mean_anomaly": 275.7398,
        "meta_ephemeris_type": 0,
        "meta_classification_type": "U",
        "meta_norad_cat_id": 44873,
        "meta_element_set_no": 999,
        "meta_rev_at_epoch": 32418,
        "meta_bstar": 9.0837923e-05,
        "meta_mean_motion_dot": 6.71e-06,
        "meta_mean_motion_ddot": 0,
        "tle_line1": "1 44873U 19092A   25348.95018174  .00000671  00000+0  90838-4 0  9999",
        "tle_line2": "2 44873  97.8810 170.2411 0001428  84.3978 275.7398 14.82167328324182"
      },
      "geometry": {
        "type": "Point",
        "coordinates": [
          -13.525195260923958,
          -30.44210947250813
        ]
      }
    },
    {
      "type": "Feature",
      "properties": {
        "norad_id": 46277,
        "name": "NEMO-HD",
        "group": "resource",
        "lat": -55.87975122805032,
        "lon": 59.71157923947827,
        "alt_km": 452.4078788170282,
        "timestamp": "2025-12-15T20:48:53.542954+00:00",
        "meta_object_name": "NEMO-HD",
        "meta_object_id": "2020-061F",
        "meta_epoch": "2025-12-14T23:13:59.096640",
        "meta_mean_motion": 15.40379896,
        "meta_eccentricity": 0.00017357,
        "meta_inclination": 97.2215,
        "meta_ra_of_asc_node": 48.0376,
        "meta_arg_of_pericenter": 54.1799,
        "meta_mean_anomaly": 305.9609,
        "meta_ephemeris_type": 0,
        "meta_classification_type": "U",
        "meta_norad_cat_id": 46277,
        "meta_element_set_no": 999,
        "meta_rev_at_epoch": 29358,
        "meta_bstar": 0.00020560485,
        "meta_mean_motion_dot": 8.224e-05,
        "meta_mean_motion_ddot": 0,
        "tle_line1": "1 46277U 20061F   25348.96804510  .00008224  00000+0  20560-3 0  9991",
        "tle_line2": "2 46277  97.2215  48.0376 0001735  54.1799 305.9609 15.40379896293584"
      },
      "geometry": {
        "type": "Point",
        "coordinates": [
          59.71157923947827,
          -55.87975122805032
        ]
      }
    },
    {
      "type": "Feature",
      "properties": {
        "norad_id": 46984,
        "name": "SENTINEL-6A",
        "group": "resource",
        "lat": 52.35721754342524,
        "lon": -59.39309098752924,
        "alt_km": 1337.03258274797,
        "timestamp": "2025-12-15T20:48:53.542964+00:00",
        "meta_object_name": "SENTINEL-6A",
        "meta_object_id": "2020-086A",
        "meta_epoch": "2025-12-14T19:49:51.591648",
        "meta_mean_motion": 12.80930707,
        "meta_eccentricity": 0.00077257,
        "meta_inclination": 66.039,
        "meta_ra_of_asc_node": 157.9742,
        "meta_arg_of_pericenter": 269.242,
        "meta_mean_anomaly": 90.771,
        "meta_ephemeris_type": 0,
        "meta_classification_type": "U",
        "meta_norad_cat_id": 46984,
        "meta_element_set_no": 999,
        "meta_rev_at_epoch": 23671,
        "meta_bstar": 0.00015278314,
        "meta_mean_motion_dot": -2.6e-07,
        "meta_mean_motion_ddot": 0,
        "tle_line1": "1 46984U 20086A   25348.82629157 -.00000026  00000+0  15278-3 0  9993",
        "tle_line2": "2 46984  66.0390 157.9742 0007725 269.2420  90.7710 12.80930707236718"
      },
      "geometry": {
        "type": "Point",
        "coordinates": [
          -59.39309098752924,
          52.35721754342524
        ]
      }
    },
    {
      "type": "Feature",
      "properties": {
        "norad_id": 48079,
        "name": "GAOFEN-12 02",
        "group": "resource",
        "lat": 80.94094091468054,
        "lon": -134.4508680422216,
        "alt_km": 617.2475804237965,
        "timestamp": "2025-12-15T20:48:53.542975+00:00",
        "meta_object_name": "GAOFEN-12 02",
        "meta_object_id": "2021-026A",
        "meta_epoch": "2025-12-14T23:18:23.901408",
        "meta_mean_motion": 14.80677667,
        "meta_eccentricity": 0.00035766,
        "meta_inclination": 97.9852,
        "meta_ra_of_asc_node": 342.9667,
        "meta_arg_of_pericenter": 96.5815,
        "meta_mean_anomaly": 263.5805,
        "meta_ephemeris_type": 0,
        "meta_classification_type": "U",
        "meta_norad_cat_id": 48079,
        "meta_element_set_no": 999,
        "meta_rev_at_epoch": 25450,
        "meta_bstar": 7.9716632e-05,
        "meta_mean_motion_dot": 5.6e-06,
        "meta_mean_motion_ddot": 0,
        "tle_line1": "1 48079U 21026A   25348.97110997  .00000560  00000+0  79717-4 0  9999",
        "tle_line2": "2 48079  97.9852 342.9667 0003576  96.5815 263.5805 14.80677667254509"
      },
      "geometry": {
        "type": "Point",
        "coordinates": [
          -134.4508680422216,
          80.94094091468054
        ]
      }
    },
    {
      "type": "Feature",
      "properties": {
        "norad_id": 48268,
        "name": "PLEIADES NEO 3",
        "group": "resource",
        "lat": 7.364726129355466,
        "lon": -116.70953301419324,
        "alt_km": 625.9296830738285,
        "timestamp": "2025-12-15T20:48:53.542985+00:00",
        "meta_object_name": "PLEIADES NEO 3",
        "meta_object_id": "2021-034A",
        "meta_epoch": "2025-12-14T22:58:08.625792",
        "meta_mean_motion": 14.81672474,
        "meta_eccentricity": 0.00013133,
        "meta_inclination": 97.8944,
        "meta_ra_of_asc_node": 61.3658,
        "meta_arg_of_pericenter": 93.0614,
        "meta_mean_anomaly": 267.0749,
        "meta_ephemeris_type": 0,
        "meta_classification_type": "U",
        "meta_norad_cat_id": 48268,
        "meta_element_set_no": 999,
        "meta_rev_at_epoch": 25037,
        "meta_bstar": 0.00024173836,
        "meta_mean_motion_dot": 1.851e-05,
        "meta_mean_motion_ddot": 0,
        "tle_line1": "1 48268U 21034A   25348.95704428  .00001851  00000+0  24174-3 0  9994",
        "tle_line2": "2 48268  97.8944  61.3658 0001313  93.0614 267.0749 14.81672474250377"
      },
      "geometry": {
        "type": "Point",
        "coordinates": [
          -116.70953301419324,
          7.364726129355466
        ]
      }
    },
    {
      "type": "Feature",
      "properties": {
        "norad_id": 49070,
        "name": "PLEIADES NEO 4",
        "group": "resource",
        "lat": -7.591784250168188,
        "lon": 63.31907572713869,
        "alt_km": 628.2176637477569,
        "timestamp": "2025-12-15T20:48:53.542995+00:00",
        "meta_object_name": "PLEIADES NEO 4",
        "meta_object_id": "2021-073E",
        "meta_epoch": "2025-12-15T04:38:29.626080",
        "meta_mean_motion": 14.81670614,
        "meta_eccentricity": 0.0001261,
        "meta_inclination": 97.8948,
        "meta_ra_of_asc_node": 61.5952,
        "meta_arg_of_pericenter": 98.0508,
        "meta_mean_anomaly": 262.0848,
        "meta_ephemeris_type": 0,
        "meta_classification_type": "U",
        "meta_norad_cat_id": 49070,
        "meta_element_set_no": 999,
        "meta_rev_at_epoch": 23412,
        "meta_bstar": 1.0065e-05,
        "meta_mean_motion_dot": 2.7e-07,
        "meta_mean_motion_ddot": 0,
        "tle_line1": "1 49070U 21073E   25349.19339845  .00000027  00000+0  10065-4 0  9992",
        "tle_line2": "2 49070  97.8948  61.5952 0001261  98.0508 262.0848 14.81670614234125"
      },
      "geometry": {
        "type": "Point",
        "coordinates": [
          63.31907572713869,
          -7.591784250168188
        ]
      }
    },
    {
      "type": "Feature",
      "properties": {
        "norad_id": 49260,
        "name": "LANDSAT 9",
        "group": "resource",
        "lat": 81.27034861747329,
        "lon": -51.988332345625736,
        "alt_km": 694.2852401438013,
        "timestamp": "2025-12-15T20:48:53.543005+00:00",
        "meta_object_name": "LANDSAT 9",
        "meta_object_id": "2021-088A",
        "meta_epoch": "2025-12-14T19:40:07.342752",
        "meta_mean_motion": 14.57100223,
        "meta_eccentricity": 0.00011604,
        "meta_inclination": 98.2093,
        "meta_ra_of_asc_node": 56.9004,
        "meta_arg_of_pericenter": 89.4668,
        "meta_mean_anomaly": 270.6664,
        "meta_ephemeris_type": 0,
        "meta_classification_type": "U",
        "meta_norad_cat_id": 49260,
        "meta_element_set_no": 999,
        "meta_rev_at_epoch": 22415,
        "meta_bstar": 0.0001241768,
        "meta_mean_motion_dot": 5.14e-06,
        "meta_mean_motion_ddot": 0,
        "tle_line1": "1 49260U 21088A   25348.81952943  .00000514  00000+0  12418-3 0  9991",
        "tle_line2": "2 49260  98.2093  56.9004 0001160  89.4668 270.6664 14.57100223224157"
      },
      "geometry": {
        "type": "Point",
        "coordinates": [
          -51.988332345625736,
          81.27034861747329
        ]
      }
    }
  ]
}